     2.10           N: GPS NAV DATA                         RINEX VERSION / TYPE
CONVBIN 2.4.3                           20180525 185917 UTC PGM / RUN BY / DATE 
log: /home/cbrant/GPSdopplar/nvsData/2018-05-25-data/2018_05COMMENT             
format: NVS BINR                                            COMMENT             
                                                            END OF HEADER       
17 18  5 25 20  0  0.0 -.946074724197E-04  .363797880709E-11  .000000000000E+00
     .550000000000E+02 -.497500000000E+02  .387659002121E-08  .274213672633E+01
    -.246800482273E-05  .123503518989E-01  .109747052193E-04  .515356565666E+04
     .504000000000E+06  .124797224998E-06  .265595637003E+01 -.180676579475E-06
     .982916602125E+00  .175156250000E+03 -.177837681116E+01 -.744531012705E-08
    -.285726187357E-10  .100000000000E+01  .200200000000E+04  .000000000000E+00
     .200000000000E+01  .000000000000E+00 -.111758708954E-07  .550000000000E+02
     .497647500000E+06  .000000000000E+00
 7 18  5 25 20  0  0.0  .185999095440E-03 -.613908923697E-11  .000000000000E+00
     .102000000000E+03  .862187500000E+02  .478412795490E-08 -.645389424774E-02
     .464729964733E-05  .116129155504E-01  .542216002941E-05  .515366207886E+04
     .504000000000E+06  .447034835815E-07  .528810789423E+00  .156462192535E-06
     .958904032168E+00  .275000000000E+03 -.253034526884E+01 -.848963934184E-08
     .401445293236E-09  .100000000000E+01  .200200000000E+04  .000000000000E+00
     .200000000000E+01  .000000000000E+00 -.111758708954E-07  .102000000000E+03
     .497707500000E+06  .000000000000E+00
30 18  5 25 20  0  0.0  .700857490301E-04 -.432009983342E-11  .000000000000E+00
     .950000000000E+02  .859687500000E+02  .502770958546E-08  .900001407300E-01
     .452995300293E-05  .340665387921E-02  .500679016113E-05  .515373409843E+04
     .504000000000E+06  .447034835815E-07  .562408934064E+00  .447034835815E-07
     .944486472716E+00  .273250000000E+03 -.308273777983E+01 -.849642533879E-08
     .390373403476E-09  .100000000000E+01  .200200000000E+04  .000000000000E+00
     .200000000000E+01  .000000000000E+00  .372529029846E-08  .950000000000E+02
     .497842500000E+06  .000000000000E+00
